Factual ID,Name,Address,Locality (Town/City),Region (State/Province),Post Code,Country,Neighborhood,Tel,Website,Latitude,Longitude,Category Labels,Chain Name,
88dc1adc-32d9-4afe-9da8-2d770a6703c6,Safeway,5290 Diamond Heights Blvd,San Francisco,CA,94131,us,"Diamond Heights,Vista del Monte",(415) 824-7744,http://www.safeway.com/,37.743754,-122.439155,Supermarkets and Groceries,Safeway,
77fd78bb-ed15-4cb4-8008-bb8379450132,Lucky,1515 Sloat Blvd,San Francisco,CA,94132,us,"Lake Shore,Westlake",(415) 681-4300,https://www.luckysupermarkets.com/,37.733092,-122.489522,Supermarkets and Groceries,Lucky,
7c59b6d6-00aa-46c7-a523-0819dcb85a64,Whole Foods,690 Stanyan St,San Francisco,CA,94117,us,"Cole Valley,Haight-Ashbury,Park View Commons,Upper Haight",(415) 876-6740,http://www.wholefoodsmarket.com,37.76943,-122.452859,Supermarkets and Groceries,Whole Foods,
fa629981-f247-4131-822d-a31e160b3ebe,Safeway,350 Bay St,San Francisco,CA,94133,us,"Fisherman's Wharf,North Beach",(415) 781-4374,http://www.safeway.com/,37.806043,-122.412808,Supermarkets and Groceries,Safeway,
ddef2730-8622-4f4e-8cd6-d6260863bee3,Trader Joe's,555 9th St,San Francisco,CA,94103,us,"SOMISSPO,South Of Market",(415) 863-1292,http://www.traderjoes.com/,37.770939,-122.407511,Supermarkets and Groceries,Trader Joe's,
83dfaa71-f48d-4cff-af44-b72ee776ba11,Real Food Company,2140 Polk St,San Francisco,CA,94109,us,"Nob Hill,Polk Gulch,Russian Hill",(415) 673-7420,http://www.RealFoofCo.com,37.796544,-122.421711,Supermarkets and Groceries,N/A,
dc9e8ab5-08fe-4bbd-881b-e0ef4b1fc260,Safeway,3350 Mission St,San Francisco,CA,94110,us,"Bernal Heights,Noe Valley,Transmission",(415) 826-2866,http://www.safeway.com/,37.743246,-122.422288,Supermarkets and Groceries,Safeway,
d098cdbe-dbf6-4ee9-a322-cbcdfcfdb547,Whole Foods,2001 Market St,San Francisco,CA,94114,us,"Duboce Triangle,Mission Dolores",(415) 626-1430,http://www.wholefoodsmarket.com,37.768692,-122.427088,Supermarkets and Groceries,Whole Foods,
49755616-0be1-4e4b-88b2-b05566b883fa,Rincon Market,98 Howard St,San Francisco,CA,94105,us,"Financial District,Rincon Hill,South Beach,South Of Market",(415) 512-8066,N/A,37.791526,-122.39245,Supermarkets and Groceries,N/A,
d3927ec0-7324-42f6-8643-0c57f226bb5f,Safeway,735 7th Ave,San Francisco,CA,94118,us,"Inner Richmond,Richmond District",(415) 683-4070,http://www.safeway.com/,37.774601,-122.465491,Supermarkets and Groceries,Safeway,
270ab625-bb4a-496b-b540-d4d359d44ba2,R Image Market,2898 Folsom St,San Francisco,CA,94110,us,"Inner Mission,Mission,Mission District",(415) 648-5400,http://r-image-market-san-francisco-ca.placestars.com,37.750992,-122.414146,Supermarkets and Groceries,N/A,
e0d46440-40c1-4377-ae4b-afbe301a4ca8,Good Life Grocery,1524 20th St,San Francisco,CA,94107,us,"Potrero District,Victoria Mews",(415) 282-9204,http://www.potrerohillpsychotherapy.com,37.760186,-122.396843,Supermarkets and Groceries,N/A,
97a07f1a-337c-4964-9a38-c72799c24e9a,Nijiya Market,1737 Post St,San Francisco,CA,94115,us,"Japantown,Laguna Heights,Little Osaka",(415) 563-1901,http://www.nijiya.com/,37.785401,-122.430299,Supermarkets and Groceries,Nijiya Market,
489d23f6-c800-4bfe-baf4-6b800e29de73,Faye's Video,3614 18th St,San Francisco,CA,94110,us,"Mission,Mission District,Mission Dolores",(415) 522-0434,http://www.fayesvideo.blogspot.com,37.761619,-122.424305,Supermarkets and Groceries,N/A,
c0215878-d3c5-48a9-b383-a2e750c6f305,Harvest Hills Market,3216 Folsom St,San Francisco,CA,94110,us,Bernal Heights,(415) 341-1515,http://www.toharvest.com,37.746735,-122.413823,Supermarkets and Groceries,N/A,
5661c451-7519-4c64-9f9f-d87e52988744,Courtney Produce,101 Castro St,San Francisco,CA,94114,us,"Castro,Duboce Triangle",(415) 626-1850,http://courtney-produce-ii-san-francisco-ca.placestars.com,37.767267,-122.435461,Supermarkets and Groceries,N/A,
58ccae61-402e-4817-92f1-f7e2372ee6e2,Roxie Food Center,1901 San Jose Ave,San Francisco,CA,94112,us,Sunnyside,(415) 587-2345,http://roxie.com,37.726674,-122.441152,Supermarkets and Groceries,N/A,
b61c6ac1-b81a-4ba1-a0f2-69be045ea744,Trader Joe's,265 Winston Dr,San Francisco,CA,94132,us,"Lakeside,Stonestown",(415) 665-1835,http://www.traderjoes.com/,37.726717,-122.476394,Supermarkets and Groceries,Trader Joe's,
0f93d976-b9bf-43ef-bc8d-3f7920fb8965,Pacific Supermarket,2900 Alemany Blvd,San Francisco,CA,94112,us,"Oceanview,Outer Mission",(415) 337-1628,http://www.pacificsupermarket.com/,37.711984,-122.452887,Supermarkets and Groceries,N/A,
08d640b0-ad1e-4322-b3cc-ef3fe84da900,Mollie Stone's Markets,2435 California St,San Francisco,CA,94115,us,Lower Pacific Heights,(415) 567-4902,http://www.molliestones.com/,37.788607,-122.434503,Supermarkets and Groceries,Mollie Stone's Markets,
7dfb6d7f-b295-4ec7-832f-9c08f7bc4509,Whole Foods,399 4th St,San Francisco,CA,94107,us,"South Beach,South Of Market",(415) 618-0066,http://www.wholefoodsmarket.com,37.781182,-122.399584,Supermarkets and Groceries,Whole Foods,
48eba7b7-74f0-4145-ba83-9c491dffd2b6,Royal Market & Bakery,5335 Geary Blvd,San Francisco,CA,94121,us,"Central Richmond,Little Russia,Richmond District",(415) 221-5550,http://royalmarketsf.com,37.780271,-122.476721,Supermarkets and Groceries,N/A,
0a81a738-1de9-4735-b7ff-17dc5bb7a735,Whole Foods,1765 California St,San Francisco,CA,94109,us,"Cathedral Hill,Laguna Heights,Little Osaka,Pacific Heights,Polk Gulch,Van Ness",(415) 674-0500,http://www.wholefoodsmarket.com,37.789904,-122.42354,Supermarkets and Groceries,Whole Foods,
ec9d87c7-265a-4505-8f96-8e88acb70ee2,Church Produce,1798 Church St,San Francisco,CA,94131,us,"Bernal Heights,Noe Valley",(415) 282-1153,http://www.groupon.com/,37.742193,-122.426668,Supermarkets and Groceries,N/A,
2549b530-30bb-4527-868d-29c4b2b67213,Sunset Supermarket,2425 Irving St,San Francisco,CA,94122,us,Central Sunset,(415) 682-3738,https://www.groupon.com/biz/san-francisco/sunset-supermaket,37.763002,-122.484217,Supermarkets and Groceries,N/A,
4895a62f-a533-409b-a1d1-ac1a60a6c918,Mayflower Market,2498 Fillmore St,San Francisco,CA,94115,us,Pacific Heights,(415) 346-1700,http://www.mayflowermarketfillmore.com/,37.792439,-122.434371,Supermarkets and Groceries,N/A,
da77c502-dd24-40bc-a738-bbe25d314b8a,Whole Foods,450 Rhode Island St,San Francisco,CA,94107,us,"Potrero District,Potrero Flats",(415) 552-1155,http://www.wholefoodsmarket.com,37.764408,-122.402754,Supermarkets and Groceries,Whole Foods,
413759ec-c2bd-4591-9fae-6eabe22ea264,Foodsco,345 Williams Ave,San Francisco,CA,94124,us,"Bayshore,Portola,Silver Terrace",(415) 330-1870,https://www.foodsco.net/stores/details/704/00351?cid=loc_70400351_other,37.729729,-122.398992,Supermarkets and Groceries,N/A,
5351dd37-0b9d-437d-ba3c-427882be73b2,R J's Market Levi Plaza,1425 Sansome St,San Francisco,CA,94111,us,"North Waterfront,Telegraph Hill",(415) 397-7160,http://rjs-market-levi-plaza-san-francisco-ca.placestars.com,37.803333,-122.403399,Supermarkets and Groceries,N/A,
ac111a36-35b1-48b0-90e6-1234d51815b7,Trader Joe's,401 Bay St,San Francisco,CA,94133,us,"Fisherman's Wharf,North Beach",(415) 351-1013,http://www.traderjoes.com/,37.80555,-122.413711,Supermarkets and Groceries,Trader Joe's,
87376b18-a99f-4e5e-8415-8a5c64ec6e1e,Safeway,1335 Webster St,San Francisco,CA,94115,us,"Thomas Paine Square,Western Addition",(415) 921-4557,http://www.safeway.com/,37.782869,-122.431368,Supermarkets and Groceries,Safeway,
032970ef-0b57-49cf-8e50-e9d3b463d8a1,Bi-Rite Market,550 Divisadero St,San Francisco,CA,94117,us,"Alamo Square,Lower Haight,North Panhandle",(415) 551-7900,http://www.biritemarket.com/,37.774876,-122.437631,Supermarkets and Groceries,N/A,
039ad62a-fd3d-480a-a204-0ad58b36703a,Trader Joe's,1095 Hyde St,San Francisco,CA,94109,us,"Lower Nob Hill,Nob Hill,Tenderloin",(415) 292-7665,http://www.traderjoes.com/,37.790627,-122.41792,Supermarkets and Groceries,Trader Joe's,
1a34b228-ee4d-4235-866e-12f08aa1208f,Trader Joe's,3 Masonic Ave,San Francisco,CA,94118,us,"Anza Vista,Laurel Heights",(415) 346-9964,http://www.traderjoes.com/,37.783341,-122.447809,Supermarkets and Groceries,Trader Joe's,
7239f8ae-a2fb-46e2-9a5f-54e6baaa342c,Casa Lucas Market,2934 24th St,San Francisco,CA,94110,us,"Inner Mission,Mission,Mission District",(415) 826-4334,http://casa-lucas-market-san-francisco-2-ca.placestars.com,37.752825,-122.410671,Supermarkets and Groceries,N/A,
524527b6-9e08-4ae8-b4c5-919a6c92a1ab,New India Bazzar Indian Grocery Store,1107 Polk St,San Francisco,CA,94109,us,"Little Saigon,Tenderloin,Van Ness",(415) 928-4553,http://new-india-bazzar-indian-grocery-store-san-francisco-ca.placestars.com,37.786968,-122.420069,Supermarkets and Groceries,N/A,
10a84cc2-ceb3-4324-90ae-a897cb5a9599,Whole Foods,1150 Ocean Ave,San Francisco,CA,94112,us,Ingleside,(415) 333-7400,http://www.wholefoodsmarket.com,37.723847,-122.455024,Supermarkets and Groceries,Whole Foods,
fe5ad0dd-858d-4e5b-a7ed-f68ef2b07fd4,Good Eggs,901 Rankin St,San Francisco,CA,94124,us,"Bayshore,Bayview District,Silver Terrace",(415) 483-7344,https://www.goodeggs.com/,37.740905,-122.395135,Supermarkets and Groceries,N/A,
c1948baf-a16c-4967-b342-009c9bf80982,Whole Foods,3950 24th St,San Francisco,CA,94114,us,"Dolores Heights,Noe Valley",(415) 282-4700,http://www.wholefoodsmarket.com,37.751977,-122.430757,Supermarkets and Groceries,Whole Foods,
59862b47-50bb-4d9c-83c6-15ed6a56b0a9,Sunset II Supermarket,2801 Vicente St,San Francisco,CA,94116,us,Outer Parkside,(415) 504-8188,https://www.groupon.com/biz/san-francisco/sunset-supermarket,37.738104,-122.497413,Supermarkets and Groceries,N/A,
12427e55-0aa1-4558-ad64-8935f17c6eab,Third World Market,1200 Fillmore St,San Francisco,CA,94115,us,"Thomas Paine Square,Western Addition",(415) 567-0165,http://third-world-market-san-francisco-ca.placestars.com,37.78094,-122.431827,Supermarkets and Groceries,N/A,
0102338d-9332-41dc-9da8-1f92d7faedd7,Vj Grocery,1199 Clay St,San Francisco,CA,94108,us,"Chinatown,French Quarter,Little Italy,Nob Hill,Union Square",(415) 885-3417,http://vj-grocery-san-francisco-ca.placestars.com,37.793383,-122.412634,Supermarkets and Groceries,N/A,
10aa65e1-b897-4a5b-b0e1-65a329bb153a,Park Plaza Fine Foods,111 Cambon Dr,San Francisco,CA,94132,us,"Stonestown,Westlake",(415) 587-7075,http://uwebconnect.com/parkplaza/,37.716737,-122.47401,Supermarkets and Groceries,N/A,
02a83da8-06f2-4cb8-a90c-fbbabf917282,Village Market,1 Ferry Building,San Francisco,CA,94111,us,"Financial District,North Waterfront,Rincon Hill,South Beach",(415) 989-9200,http://www.villagemarketsf.com/,37.795336,-122.393463,Supermarkets and Groceries,N/A,
1ad66ee9-7968-4812-aa63-0b23707f00cf,Super Save Market,4517 3rd St,San Francisco,CA,94124,us,"Bayshore,Bayview,Bayview District",(415) 282-3722,https://supersavesupermarkets.com,37.736611,-122.389723,Supermarkets and Groceries,N/A,
4b853aa1-c97a-4fc9-b60d-34f89ee119d3,Chiotras Grocery,858 Rhode Island St,San Francisco,CA,94107,us,"Potrero District,Victoria Mews",(415) 824-2353,http://www.sanfranciscobusinesslist.com,37.7589,-122.402142,Supermarkets and Groceries,N/A,
05fc78d1-e0c8-4cfb-9390-8ab4044f77f6,Mercado Brasil,1252 Valencia St,San Francisco,CA,94110,us,"Baja Noe,Mission,Mission District,Noe Valley",(415) 285-3520,http://www.mercadobrasilsf.com/,37.752822,-122.42099,Supermarkets and Groceries,N/A,
03071b81-88ec-400f-9bf8-7b323ac4dfff,Safeway,145 Jackson St,San Francisco,CA,94111,us,Financial District,(415) 982-3112,http://www.safeway.com/,37.796809,-122.398999,Supermarkets and Groceries,Safeway,
c881b44e-139b-4ecb-8ebf-ac0ae183f573,Cheers Market,867 Fillmore St,San Francisco,CA,94117,us,Alamo Square,(415) 885-2898,http://www.cheersondemand.com,37.777221,-122.43175,Supermarkets and Groceries,N/A,
8caf5968-9b1d-4b0e-a229-6facd303bc00,Nabila's Health Foods,559 Hayes St,San Francisco,CA,94102,us,"Alamo Square,Hayes Valley",(415) 864-6514,http://www.nabilas.com,37.776352,-122.425606,Supermarkets and Groceries,N/A,
a9a2b781-8ad3-4b5f-97d5-41b8d80800b6,You Say Tomato,1526 California St,San Francisco,CA,94109,us,"Lower Nob Hill,Nob Hill,Polk Gulch",(415) 921-2828,http://www.yousaytomato.biz,37.790898,-122.419513,Supermarkets and Groceries,N/A,
4e1f6cbf-0528-4865-9ce0-3bf57ab01b36,25th & Clement Produce Market,2354 Clement St,San Francisco,CA,94121,us,"Central Richmond,Richmond District,Sea Cliff",(415) 387-8222,N/A,37.782165,-122.484787,Supermarkets and Groceries,N/A,
b4e46201-01a8-4094-ab11-b213f0295bb3,Sutter Fine Foods,988 Sutter St,San Francisco,CA,94109,us,"Little Saigon,Lower Nob Hill,Nob Hill,Tenderloin",(415) 776-7079,http://suttercreek.org,37.788346,-122.416567,Supermarkets and Groceries,N/A,
8bb0b32a-ecd3-4786-b499-5fab5174867c,Jai Ho Indian Grocery,1462 Fillmore St,San Francisco,CA,94115,us,"Japantown,Marcus Garvey Square,Thomas Paine Square,Western Addition",(415) 567-1070,http://jai-ho-indian-grocery-san-francisco-ca.placestars.com,37.782912,-122.432517,Supermarkets and Groceries,N/A,
d700d5ab-0e7c-4084-804a-8e9fa6260afd,Eight-Twenty-Eight Irving Market,828 Irving St,San Francisco,CA,94122,us,"Inner Sunset,Inset",(415) 731-7460,http://eight-twenty-eight-irving-market-san-francisco-ca.placestars.com,37.764237,-122.466881,Supermarkets and Groceries,N/A,
49783025-6e25-4908-a789-9a1cc4a6c39e,Safeway,625 Monterey Blvd,San Francisco,CA,94127,us,"Sunnyside,Westwood Highlands",(415) 586-2421,http://www.safeway.com/,37.73111,-122.450226,Supermarkets and Groceries,Safeway,
8064fd10-1e18-012f-0643-0030487f54d8,Casa Guadalupe 2,2909 Mission St,San Francisco,CA,94110,us,"Bernal Heights,Inner Mission,Mission,Mission District,Transmission",(415) 642-8355,http://casaguadalupe.com,37.750399,-122.418053,Supermarkets and Groceries,N/A,
18173015-96ee-4829-abca-57498b47c396,Ming Lee Trading,759 Jackson St,San Francisco,CA,94133,us,"Chinatown,Little Italy,Nob Hill",(415) 217-0088,http://ming-lee-trading-san-francisco-ca.placestars.com,37.795819,-122.407688,Supermarkets and Groceries,N/A,
8d75d235-8332-4de0-b937-511c4016caa8,Ales Unlimited,2398 Webster St,San Francisco,CA,94115,us,Pacific Heights,(415) 346-6849,http://www.alesunlimited.com/,37.792597,-122.432732,Supermarkets and Groceries,N/A,
ee4f0255-0f39-4e3e-8afd-525c567de73e,Good Life Grocery,448 Cortland Ave,San Francisco,CA,94110,us,"Bayshore,Bernal Heights",(415) 648-3221,http://www.goodlifegrocery.com,37.738976,-122.41659,Supermarkets and Groceries,N/A,
4b07e6a5-e1cb-45fb-8282-b713872fd6bb,Ferry Building Marketplace,1 Ferry Building,San Francisco,CA,94111,us,"Financial District,North Waterfront,Rincon Hill,South Beach",(415) 983-8030,http://www.ferrybuildingmarketplace.com,37.795531,-122.393475,Farmers' Markets,N/A,
12142041-b382-461b-91cb-34d1f457a3f9,Parkside Farmer's Market,555 Taraval St,San Francisco,CA,94116,us,"Inner Parkside,West Portal,Westlake",(415) 681-5563,http://www.parksidefarmersmarket.com,37.743038,-122.472353,Farmers' Markets,N/A,
e32e7ca3-1c2d-4562-b86a-2bc02e3d6190,Stonestown Farmers Market,3251 20th Ave,San Francisco,CA,94132,us,"Lakeside,Stonestown",(415) 472-6100,http://www.stonestowngalleria.com/events/farmers-market,37.728364,-122.477065,Farmers' Markets,N/A,
71d85100-bef8-012e-5614-003048cad9da,Heart of the City Farmers Market,1182 Market St,San Francisco,CA,94102,us,"Civic Center,Opera Plaza,South Of Market,Tenderloin",(415) 558-9455,http://www.hotcfarmersmarket.org,37.779154,-122.41459,Farmers' Markets,N/A,
20313bd7-0696-4bbb-8b14-3b9f5af269b7,Noriega Produce,3821 Noriega St,San Francisco,CA,94122,us,"Outer Sunset,Outset",(415) 564-0370,http://gussmarket.com/,37.752856,-122.504813,Farmers' Markets,N/A,
c0aa2989-070e-42fe-a7ca-05ab7df86546,Noe Valley Farmers Market,3861 24th St,San Francisco,CA,94114,us,"Castro,Dolores Heights,Noe Valley",(415) 248-1332,http://www.noevalleyfarmersmarket.com/,37.751473,-122.429223,Farmers' Markets,N/A,
6e07c809-1283-483e-b063-307047d81473,Golden Produce,172 Church St,San Francisco,CA,94114,us,"Castro,Duboce Triangle,Lower Haight",(415) 431-1536,http://golden-produce-san-francisco-ca.placestars.com,37.768192,-122.429352,Health and Diet Food,N/A,
bf13afa4-327f-4c46-b3b3-c075ffdc154a,Alemany Farmers Market,100 Alemany Blvd,San Francisco,CA,94110,us,"Bayshore,Bernal Heights,Portola",(415) 647-9423,http://sfgsa.org/index.aspx?page=1058,37.735811,-122.410098,Farmers' Markets,N/A,
0ad36173-da63-476d-ac6c-931059e66dde,Fillmore Farmers' Market,Fillmore St,San Francisco,CA,94115,us,"Japantown,Little Osaka,Lower Pacific Heights,Marcus Garvey Square,Thomas Paine Square,Western Addition",(415) 346-6788,http://www.pcfma.com/market_home.php?market_id=13,37.783427,-122.433049,Farmers' Markets,N/A,
6963abc8-d543-4637-b0b9-cb3d6d87163a,Union Street Produce Company,801 Union St,San Francisco,CA,94133,us,"Little Italy,North Beach",(415) 928-2611,http://www.usapothecary.com,37.799844,-122.412729,Farmers' Markets,N/A,
e2e76917-4c43-4b19-a451-ee8e290c28aa,Inner Sunset Farmers' Market,1320 9th Ave,San Francisco,CA,94122,us,"Inner Sunset,Inset",(800) 949-3276,http://www.pcfma.com/market_home.php?market_id=67,37.763772,-122.466137,Farmers' Markets,N/A,
1f397aa7-1918-46fe-96b4-513a1dc3244a,4th Ave. & Geary Farmers Market,3931 Geary Blvd,San Francisco,CA,94118,us,Inner Richmond,(415) 831-1067,http://4th-ave-and-geary-farmers-market-san-francisco-ca.placestars.com,37.780891,-122.461853,Farmers' Markets,N/A,
a5f35fff-ce90-4b0f-9c29-6f3a9f5a5152,Castro Farmers' Market,NOE St,San Francisco,CA,94114,us,"Castro,Duboce Triangle",(925) 825-9090,http://www.pcfma.com/market_home.php?market_id=64,37.764558,-122.433294,Farmers' Markets,N/A,
71eb8850-bef8-012e-5614-003048cad9da,Polk & Green Produce Market,2222 Polk St,San Francisco,CA,94109,us,"Nob Hill,Polk Gulch,Russian Hill",(415) 776-3099,http://polkgreenproduce.directorysgllc.com,37.797248,-122.421896,Farmers' Markets,N/A,
805078f5-127b-4459-baa9-99ffe9496a1b,Lucky Pork Market,2659 Mission St,San Francisco,CA,94110,us,"Baja Noe,Inner Mission,Mission,Mission District",(415) 648-4805,http://luckycompanies.com,37.754601,-122.418229,Meat and Seafood,N/A,
5c6d7c46-2969-42c0-996d-3798af6e79c3,El Chico,4600 Mission St,San Francisco,CA,94112,us,"Bayshore,Excelsior,Mission Terrace",(415) 587-6025,http://el-chico-produce-no-2-san-francisco-ca.placestars.com,37.724534,-122.435367,Farmers' Markets,N/A,
17c2bf70-88b3-4f52-97e3-af96d10b1b65,Mission Community Market,84 Bartlett St,San Francisco,CA,94110,us,"Baja Noe,Castro,Mission,Mission District",(415) 621-8203,http://www.missioncommunitymarket.org,37.755533,-122.419717,Farmers' Markets,N/A,
588822e1-7658-4179-9fa0-c0d0faa0f230,La Loma Produce,5652 Mission St,San Francisco,CA,94112,us,"Crocker,Outer Mission",(415) 585-9254,N/A,37.710728,-122.447943,Farmers' Markets,N/A,
7b2595b9-f3ad-43a6-9e88-f16a8778c849,Guzman Produce Market,5229 Mission St,San Francisco,CA,94112,us,"Crocker-Amazon,Outer Mission",(415) 585-4092,http://guzmanproduce.com,37.71483,-122.44217,Farmers' Markets,N/A,
9ed9b798-6016-49f8-a7ed-67be89020178,Divisadero Farmers' Market,1326 Grove St,San Francisco,CA,94117,us,"Alamo Square,Lower Haight,North Panhandle,Western Addition",(925) 825-9090,http://www.pcfma.com/market_home.php?market_id=63,37.776085,-122.438491,Farmers' Markets,N/A,
ba3c46bb-6c9c-4b89-8d2b-60680f1c9c6e,Heart of the City Farmers Market,United Nations Plaza,San Francisco,CA,94102,us,"Civic Center,NOMA,Tenderloin",(415) 558-9455,http://www.hotcfarmersmarket.org,37.780331,-122.413298,Farmers' Markets,N/A,
633fc7d3-3703-40b4-985b-cb9cc0b015c6,Yerba Buena Lane Farmers Market,51 Yerba Buena Ln,San Francisco,CA,94103,us,"Civic Center,Financial District,NOMA,South Of Market,Union Square",(650) 260-8840,http://www.urbantable.org,37.785581,-122.404432,Farmers' Markets,N/A,
62ed2ea8-2d11-4bf4-a8c8-a73ddce3ff01,McEvoy Ranch,1 Ferry Building,San Francisco,CA,94111,us,"Financial District,North Waterfront,Rincon Hill,South Beach",(415) 291-7224,http://www.mcevoyranch.com,37.795548,-122.393691,Farmers' Markets,N/A,
e6a6b16b-fcc7-41e5-aa19-2d2672bef523,San Francisco Farmers' Market at Crocker Galleria,50 Post St,San Francisco,CA,94104,us,"Financial District,French Quarter,Union Square",(800) 806-3276,http://www.cafarmersmkts.com/SF.html,37.789159,-122.402922,Farmers' Markets,N/A,
97e7aa44-ee6f-4bae-8567-b504d6244915,La Loma Produce,3052 16th St,San Francisco,CA,94103,us,"Inner Mission,Mission,Mission District,Mission Dolores",(415) 255-4821,N/A,37.765193,-122.420718,Farmers' Markets,N/A,
0b7b73f1-cbda-41bc-834a-9436eb49a264,Oak Fair Market,999 Oak St,San Francisco,CA,94117,us,"Alamo Square,Lower Haight",(415) 863-6082,N/A,37.773273,-122.43553,Farmers' Markets,N/A,
5aaeba50-b069-4879-8872-93e5fcc6b4c1,Park's Farmers Market,400 Irving St,San Francisco,CA,94122,us,"Inner Sunset,Inset",(415) 665-1154,N/A,37.764393,-122.462305,Farmers' Markets,N/A,
c68e9e5f-9a09-451d-b5c4-280dd66211b1,La Cocina,1 Ferry Building,San Francisco,CA,94111,us,"Financial District,North Waterfront,Rincon Hill,South Beach",(415) 824-2729,http://la-cocina-san-francisco-ca.placestars.com,37.795455,-122.393614,Farmers' Markets,N/A,
7da499a7-0810-461f-8289-7922ad0492df,Clement Street Farmers Market,Clement St,San Francisco,CA,94118,us,"Inner Richmond,Presidio Terrace,Richmond District",(415) 472-6100,http://www.agriculturalinstitute.org,37.783227,-122.461634,Farmers' Markets,N/A,
aa3e451d-72ee-4e18-a5b2-0c14ad3ffec5,UCSF Parnassus RecSports,500 Parnassus Ave,San Francisco,CA,94143,us,"Inner Sunset,Park View Commons,Parnassus",(415) 476-1115,http://www.campuslifeservices.ucsf.edu/fitnessrecreation/recreational_sports/parnassus/,37.763528,-122.458241,Farmers' Markets,N/A,
0e4e7b1f-1384-4c4e-85fa-fc7934fe5b28,Chung Hing Produce Co.,1300 Powell St,San Francisco,CA,94133,us,"Chinatown,Little Italy,Nob Hill",(415) 693-9634,http://chung-hing-produce-company-san-francisco-ca.placestars.com,37.796593,-122.409956,Farmers' Markets,N/A,
48677406-4054-43b9-b4fd-faed4ce2ddfc,Upper Haight Farmers' Market,Stanyan St,San Francisco,CA,94117,us,"Haight-Ashbury,North Panhandle",(925) 825-9090,http://www.pcfma.com/market_home.php?market_id=41,37.771788,-122.444256,Farmers' Markets,N/A,
8b739927-37d5-4642-a819-36de2b26b6f4,G & G Finest Produce,5015 Geary Blvd,San Francisco,CA,94118,us,"Central Richmond,Inner Richmond,Lake,Little Russia,Richmond District",(415) 387-5673,http://g-and-g-finest-produce-san-francisco-ca.placestars.com,37.780442,-122.47322,Farmers' Markets,N/A,
5a22f3e8-30f5-4add-9924-5078e1c60cd6,North Beach Farmers Market,Powell St,San Francisco,CA,94133,us,"Little Italy,North Beach",(650) 922-4661,N/A,37.804445,-122.411925,Farmers' Markets,N/A,
fe352a4f-fff7-44d5-926c-e1d3321f80bd,Polk Street Produce,1334 Polk St,San Francisco,CA,94109,us,"Cathedral Hill,Lower Nob Hill,Polk Gulch,Tenderloin,Van Ness",(415) 447-2801,,37.789271,-122.420277,Farmers' Markets,N/A,
a372ba05-b56a-4cb3-b1d7-2037360ca908,Fort Mason Center Farmers' Market,Marina Blvd,San Francisco,CA,94123,us,Marina District,(800) 806-3276,http://www.fortmason.org/farmersmarket/,37.805984,-122.431948,Farmers' Markets,N/A,
248ef62b-ff8d-45fc-a862-e98abb385157,Guerrero Hill Market,3398 22nd St,San Francisco,CA,94110,us,"Baja Noe,Castro,Dolores Heights,Mission,Mission District,Mission Dolores",(415) 285-2030,N/A,37.755412,-122.423007,"Beer, Wine and Spirits",N/A,
5587cc0a-c546-4c13-ae5a-05a0e16a6eaa,A & A Produce,843 Clement St,San Francisco,CA,94118,us,"Inner Richmond,Lake,Richmond District",(415) 668-6666,N/A,37.782636,-122.468478,Farmers' Markets,N/A,
80d575d0-1e18-012f-0643-0030487f54d8,Albert & Eve Organics Co.,2050 Galvez Ave,San Francisco,CA,94124,us,Silver Terrace,(925) 209-0958,http://www.alberteve.com/,37.745639,-122.396058,Farmers' Markets,N/A,
fd84f58f-6aee-4d02-a1db-a7ef1665950c,Dirty Girl Produce,1 Ferry Building,San Francisco,CA,94111,us,"Financial District,North Waterfront,Rincon Hill,South Beach",N/A,N/A,37.79539,-122.39361,Farmers' Markets,N/A,
b7315a00-2401-4e95-bc9e-a7c995d66d1a,Rancho Gordo,1 Ferry Building,San Francisco,CA,94111,us,"Financial District,North Waterfront,Rincon Hill,South Beach",(415) 576-1279,http://www.ranchogordo.com,37.79552,-122.393617,Farmers' Markets,N/A,
68eacf6b-d489-486c-9e33-6885c7950650,Greenhouse Grown Farm Tour,1 Ferry Building,San Francisco,CA,94111,us,"Financial District,North Waterfront,Rincon Hill,South Beach",(415) 291-3276,http://www.cuesa.org/,37.795575,-122.393764,Farmers' Markets,N/A,
97c793fe-2a8d-485c-8a17-d38f68debc9e,Lilah Belle's,1207 Divisadero St,San Francisco,CA,94115,us,"Anza Vista,Western Addition",(415) 255-2433,http://www.lilahbelles.com,37.780865,-122.439205,Farmers' Markets,N/A,
07d7d543-e24a-43ba-afde-343628fa6454,Eatwell Farm,1 Ferry Building,San Francisco,CA,94111,us,"Fisherman's Wharf,North Waterfront,Telegraph Hill",(707) 999-1150,http://www.eatwell.com/,37.805842,-122.403475,Farmers' Markets,N/A,
000e2756-4d1d-4fad-8833-1486831eaaf8,The Free Farm Stand,990 Treat Ave,San Francisco,CA,94110,us,"Inner Mission,Mission,Mission District",N/A,http://the-free-farm-stand-san-francisco-ca.placestars.com,37.754738,-122.413436,Farmers' Markets,N/A,
3ab5d69a-928a-4885-ad1c-b7dafe8d810f,Mint Plaza Farmers' Market,Mint Plaza,San Francisco,CA,94103,us,"NOMA,South Of Market,Tenderloin,Union Square",(650) 260-8836,http://www.urbantable.org/mint-plaza#!__mint-plaza,37.782664,-122.407557,Farmers' Markets,N/A,
2dc72c80-d8d6-4bf5-b17a-d43e63e9c41b,50 Fremont Plaza Farmers Market,50 Fremont St,San Francisco,CA,94105,us,"Chinatown,Financial District,South Beach,South Of Market",(510) 217-8298,http://50fremontplazafm.weebly.com/,37.790533,-122.397339,Farmers' Markets,N/A,
7a3889ba-bc4c-424b-a4ab-7e8c968502bb,The Real Food Company,1023 Stanyan St,San Francisco,CA,94117,us,"Cole Valley,Panassus Ashbury Heights,Park View Commons",(415) 564-2800,http://www.realfoodco.com,37.765115,-122.452889,Farmers' Markets,N/A,
d4083954-f685-44dd-af37-c50a6b96343d,Alfieri Farms,1 Ferry Building,San Francisco,CA,94111,us,"Financial District,North Waterfront,Rincon Hill,South Beach",(209) 599-7382,http://www.alfierifarms.com,37.79552,-122.393617,Farmers' Markets,N/A,
e4809cd0-9aee-435b-abe0-63e307bac345,Marshall's Farm Honey,1 Ferry Building,San Francisco,CA,94111,us,"Financial District,North Waterfront,Rincon Hill,South Beach",N/A,http://www.marshallshoney.com/,37.795504,-122.392541,Farmers' Markets,N/A,
df8ce251-af50-4620-99e9-10b2dd90fcfb,Yuet Cheong,2050 Jerrold Ave,San Francisco,CA,94124,us,"Bayview District,Silver Terrace",(415) 920-8900,http://yuet-cheong-san-francisco-ca.placestars.com,37.743746,-122.397309,Farmers' Markets,N/A,
264d3125-9034-45f3-b375-4fcb2f070c26,Good Food Awards,150 S Park St,San Francisco,CA,94107,us,"South Beach,South Of Market",(415) 796-3713,http://www.goodfoodawards.org,37.781421,-122.394723,Farmers' Markets,N/A,
fe0efaea-34f8-450b-af07-a1633bd25a0d,3 Bottled Fish,3251 20th Ave,San Francisco,CA,94132,us,"Lakeside,Stonestown",N/A,http://www.3bottledfish.wordpress.com/,37.728462,-122.476642,Farmers' Markets,N/A,
cc05b49b-4fc2-46dd-aeff-55428aa29f11,Kashiwase Farms,1 Ferry Plz,San Francisco,CA,94111,us,"Financial District,North Waterfront,Rincon Hill,South Beach",N/A,N/A,37.795662,-122.391762,Farmers' Markets,N/A,
32182939-aac4-4927-ac37-9275e04ee0c5,Johansing Farms,1182 Market St,San Francisco,CA,94102,us,"Civic Center,Opera Plaza,South Of Market,Tenderloin",(510) 566-0238,http://johansingfarms.com,37.779089,-122.414586,Farmers' Markets,N/A,
e6669799-1d58-448c-af51-14de8c293d24,The Pasta Shop,1 Ferry Plz,San Francisco,CA,94111,us,"Financial District,North Waterfront,Rincon Hill,South Beach",N/A,N/A,37.795662,-122.391762,Farmers' Markets,N/A,
168fabb9-b21a-4068-be80-a7d77fa1bd4c,Dugoni School Farmers Market,2155 Webster St,San Francisco,CA,94115,us,Pacific Heights,N/A,http://dugoni-school-farmers-market-san-francisco-ca.placestars.com,37.790294,-122.432524,Farmers' Markets,N/A,
74a9b730-1e18-012f-0643-0030487f54d8,Vlahos Orchards Fruit Market at Pier 39,1480 Embarcadero,San Francisco,CA,94133,us,"Fisherman's Wharf,North Waterfront",N/A,http://www.pier39.com/home/dine/snacks/vlahoss-fruit-orchard/,37.809042,-122.409902,Farmers' Markets,N/A,
dde80d20-d829-012e-561a-003048cad9da,Greenhearts Family Farm,989 Oak St,San Francisco,CA,94117,us,"Alamo Square,Lower Haight",(415) 971-5703,http://www.greenheartsfamilyfarm.com/,37.773246,-122.435456,Farmers' Markets,N/A,
c8d021c2-c97e-49cf-b0d3-afd576a7b373,Underground Community Pop Up Market,420 22nd St,San Francisco,CA,94107,us,Central Waterfront,N/A,http://www.bayviewunderground.wordpress.com/,37.757938,-122.38388,Farmers' Markets,N/A,
490f8902-fd64-4abd-ad48-e3791192f63f,Active Nutrition,2275 Market St,San Francisco,CA,94114,us,"Castro,Duboce Triangle,Mastro",(415) 255-2844,http://www.get-active.com,37.764526,-122.432002,Health and Diet Food,N/A,
bb3c39e1-eeb2-424a-94e7-3f2626441efc,Buffalo Whole Food & Grain Co.,598 Castro St,San Francisco,CA,94114,us,"Castro,Eureka Valley,Eureka Valley Dolores Heights",(415) 626-7038,http://buffalowholefoods.com,37.759358,-122.435064,Health and Diet Food,N/A,
eb84aa64-6cea-4e35-9905-589d6dc4494b,GNC,1549 Sloat Blvd,San Francisco,CA,94132,us,"Lake Shore,Westlake",(415) 753-8658,http://www.gnc.com/,37.732821,-122.489649,Health and Diet Food,GNC,
9c4c9126-eb64-4a28-b71a-3c3c8fd35436,GNC,220 Ofarrell St,San Francisco,CA,94102,us,"Civic Center,NOMA,Tenderloin,Union Square",(415) 984-0200,http://www.gnc.com/,37.786485,-122.408428,Health and Diet Food,GNC,
3c46d030-fb88-4e37-80c7-5f5b4349851b,Other Avenues Food Store,3930 Judah St,San Francisco,CA,94122,us,"Outer Sunset,Outset",(415) 661-7475,http://www.otheravenues.coop,37.760634,-122.504348,Health and Diet Food,N/A,
1eeb2a19-85ad-4916-8c00-92cb1b565e26,GNC,2012 Market St,San Francisco,CA,94114,us,"Duboce Triangle,Lower Haight,Mission Dolores",(415) 863-1347,http://www.gnc.com/,37.769185,-122.427906,Health and Diet Food,GNC,
353b370a-faa6-4973-949c-7542675f4bd6,GNC,576 Market St,San Francisco,CA,94104,us,"Chinatown,Financial District,French Quarter,Union Square",(415) 392-6272,http://www.gnc.com/,37.789566,-122.40144,Health and Diet Food,GNC,
41af10ac-8df6-4f4d-a333-f033bfc44bf4,GNC,4 Embarcadero Ctr,San Francisco,CA,94111,us,"Chinatown,Financial District,North Waterfront",(415) 956-0735,http://www.gnc.com/,37.795113,-122.39596,Health and Diet Food,GNC,
aa6ad5a4-2fbd-4ba5-b452-5a7d2c6286bc,GNC,1217 Polk St,San Francisco,CA,94109,us,"Cathedral Hill,Little Saigon,Lower Nob Hill,Polk Gulch,Tenderloin,Van Ness",(415) 928-1583,http://www.gnc.com/,37.788052,-122.42042,Health and Diet Food,GNC,
ace866c8-6bd0-423e-ad0d-e805fb34cdb3,GNC,350 Bay St,San Francisco,CA,94133,us,"Fisherman's Wharf,North Beach",(415) 986-4707,http://www.gnc.com/,37.805924,-122.412658,Health and Diet Food,GNC,
1a5ee502-1d78-4836-9801-8025c30e727d,GNC,2172 Chestnut St,San Francisco,CA,94123,us,"Cow Hollow,Marina District",(415) 921-1400,http://www.gnc.com/,37.800527,-122.439223,Health and Diet Food,GNC,
2cc1081e-ee1a-4f87-bda4-a0efc0cbc041,GNC,211 Pine St,San Francisco,CA,94104,us,"Chinatown,Financial District,Union Square",(415) 421-7330,http://www.gnc.com/,37.792066,-122.399939,Health and Diet Food,GNC,
069d9250-1626-4323-84bf-41d20f0a37d7,GNC,722 Market St,San Francisco,CA,94102,us,"Financial District,NOMA,Union Square",(415) 392-2261,http://www.gnc.com/,37.787435,-122.404111,Health and Diet Food,GNC,
22424572-2e7e-415c-9d12-be8eba910fb1,Harvest Urban Market,191 8th St,San Francisco,CA,94103,us,"Civic Center,South Of Market",(415) 621-1000,http://www.harvesturban.com,37.776445,-122.411563,Health and Diet Food,N/A,
11baaee8-fc9e-43b6-9758-818c2aefd4dc,Fresh Organics,1023 Stanyan St,San Francisco,CA,94117,us,"Cole Valley,Panassus Ashbury Heights,Park View Commons",(415) 564-2800,http://www.freshvites.com,37.765088,-122.452816,Health and Diet Food,N/A,
145270a0-47df-4504-94f9-f74965c45091,The Nature Stop,1336 Grant Ave,San Francisco,CA,94133,us,"Chinatown,Little Italy,North Beach,Telegraph Hill",(415) 398-3810,https://glancelocal.com/near/san-francisco?name=The+nature+stop,37.799423,-122.407112,Health and Diet Food,N/A,
526148fc-9818-439c-bd0f-4e43dbbffaf0,San Francisco Herb Company,250 14th St,San Francisco,CA,94103,us,"Inner Mission,Mission,Mission District,Mission Dolores,The Hub",(415) 861-7174,http://www.sfherb.com,37.768441,-122.418831,Health and Diet Food,N/A,
d4c4f46e-8d11-4e75-b8db-80ff7491f8ca,GNC,865 Market St,San Francisco,CA,94103,us,"Civic Center,Financial District,NOMA,South Of Market,Tenderloin,Union Square",(415) 644-0527,http://www.gnc.com/,37.783971,-122.407132,Health and Diet Food,GNC,
6e07c809-1283-483e-b063-307047d81473,Golden Produce,172 Church St,San Francisco,CA,94114,us,"Castro,Duboce Triangle,Lower Haight",(415) 431-1536,http://golden-produce-san-francisco-ca.placestars.com,37.768192,-122.429352,Health and Diet Food,N/A,
91eb5fc7-c2ca-474c-9485-7ee9fefde747,GNC,3251 20th Ave,San Francisco,CA,94132,us,"Lakeside,Stonestown",(415) 759-5320,http://www.gnc.com/,37.727979,-122.477401,Health and Diet Food,GNC,
f47bcbaf-f560-49ca-b220-c031b0027ba7,World Ginseng Center I,825 Kearny St,San Francisco,CA,94108,us,"Chinatown,Financial District,Jackson Square,Little Italy,Nob Hill,North Beach",(415) 362-2255,http://www.worldginsengcenter.com,37.795565,-122.40545,Health and Diet Food,N/A,
08d39c90-f880-438c-b08d-91be77fba0dc,Shun Yuan Herbs & Ginseng,2713 San Bruno Ave,San Francisco,CA,94134,us,"Bayshore,Portola,Silver Terrace",(415) 656-1283,http://www.glowherbalgenic.com,37.727467,-122.403373,Health and Diet Food,N/A,
0ae9721d-5332-4ede-b82e-376b629888d5,Natural Sensations,1650 Holloway Ave,San Francisco,CA,94132,us,"Lakeside,Parkmerced,Stonestown,Westlake",(415) 239-8257,http://Sfsustudentcenter.com,37.721098,-122.478065,Health and Diet Food,N/A,
141718b6-eed2-42fa-958a-71b35c29e587,Valencia Whole Foods,999 Valencia St,San Francisco,CA,94110,us,"Baja Noe,Mission,Mission District",(415) 285-0231,N/A,37.757007,-122.420951,Health and Diet Food,N/A,
2367294c-741f-4037-a9af-9daf1d18b61a,Vitamin Express,1428 Irving St,San Francisco,CA,94122,us,"Inner Sunset,Inset",(415) 564-8160,http://www.vitaminexpress.com,37.763885,-122.473165,Health and Diet Food,N/A,
f9409b6c-0b56-4120-949f-0516556029db,The Vitamin Shoppe,1430 Van Ness Ave,San Francisco,CA,94109,us,"Cathedral Hill,Laguna Heights,Polk Gulch,Van Ness",(415) 441-6881,http://www.vitaminshoppe.com/sl/SanFrancisco-436,37.789059,-122.42177,Health and Diet Food,N/A,
20bb2e78-7105-4631-b90c-e5ffd10cf0b3,Harvest Ranch Market,2285 Market St,San Francisco,CA,94114,us,"Castro,Duboce Triangle,Mastro",(415) 626-0805,http://www.harvestranch.com,37.764494,-122.43243,Health and Diet Food,N/A,
63970409-267a-4c44-9aa2-da922db3db3a,Sunshine Health Food,98 Battery St,San Francisco,CA,94111,us,"Chinatown,Financial District",(415) 788-1382,N/A,37.792082,-122.399294,Health and Diet Food,N/A,
55f9a708-1a5b-4fe0-b299-b372ec4c424f,Chung Chou City,1230 Stockton St,San Francisco,CA,94133,us,"Chinatown,Little Italy,Nob Hill,North Beach",(415) 986-2288,http://www.chungchoucity.com,37.797271,-122.408347,Health and Diet Food,N/A,
0e6bfe42-e102-48c9-9d9c-5941277e6e87,Real Food Company,3060 Fillmore St,San Francisco,CA,94123,us,Cow Hollow,(415) 567-6900,http://www.realfoodco.com,37.79795,-122.435343,Health and Diet Food,N/A,
1dc83426-8daa-45c7-b57e-ef7059b2ebf4,Twisted Thistle Apothicaire,1391 Haight St,San Francisco,CA,94117,us,"Haight-Ashbury,Upper Haight",(415) 626-4372,http://www.twistedthistleapothecary.com/,37.769939,-122.444935,Health and Diet Food,N/A,
67eae6d6-3933-4b21-90c5-09424d6e874a,Vitamin Express,2047 Fillmore St,San Francisco,CA,94115,us,Lower Pacific Heights,(415) 922-3811,http://www.vitaminexpress.com,37.788521,-122.433924,Health and Diet Food,N/A,
adccf3e4-aa56-4d46-8cc8-6842b1468c55,Spring Wind Dispensary Chinese Herb,2701 Sutter St,San Francisco,CA,94115,us,"Anza Vista,Laurel Heights",(415) 921-9990,http://www.springwinddispensary.com,37.784378,-122.444932,Health and Diet Food,N/A,
22c4d097-e605-4041-be8d-334d558de67f,GNC,2675 Geary Blvd,San Francisco,CA,94118,us,"Anza Vista,Laurel Heights",(415) 928-1505,http://www.gnc.com/,37.782123,-122.446231,Health and Diet Food,GNC,
e6a6b16b-fcc7-41e5-aa19-2d2672bef523,San Francisco Farmers' Market at Crocker Galleria,50 Post St,San Francisco,CA,94104,us,"Financial District,French Quarter,Union Square",(800) 806-3276,http://www.cafarmersmkts.com/SF.html,37.789159,-122.402922,Farmers' Markets,N/A,
c65594d8-435b-4c40-8c9b-f2303496a6d6,Scents U All,438 Haight St,San Francisco,CA,94117,us,"Hayes Valley,Lower Haight",(415) 861-6457,http://scentsuall.com,37.772458,-122.429533,Health and Diet Food,N/A,
f7bde532-400b-4394-813f-6afacc628cd9,Rainbow Grocery,1745 Folsom St,San Francisco,CA,94103,us,"Civic Center,South Of Market,The Hub",(415) 863-0620,http://www.rainbow.coop/,37.769218,-122.415079,Health and Diet Food,N/A,
d4fa47bc-7629-4ddc-abe5-37d01624edd3,Superior Trading Co.,837 Washington St,San Francisco,CA,94108,us,"Chinatown,Little Italy,Nob Hill,North Beach",(415) 982-8722,http://www.superiortrading.com,37.794968,-122.407279,Health and Diet Food,N/A,
2d7bb776-1216-45bb-bc11-44062f735082,Divisadero Health Haven,621 Divisadero St,San Francisco,CA,94117,us,"Alamo Square,Lower Haight,North Panhandle,Western Addition",(415) 351-1267,http://divisadero-health-haven-san-francisco-ca.placestars.com,37.775272,-122.438013,Health and Diet Food,N/A,
749f5790-1e18-012f-0643-0030487f54d8,Jumbo Trading Co.,614 Kearny St,San Francisco,CA,94108,us,"Chinatown,Financial District,French Quarter,Jackson Square,Little Italy,Nob Hill,North Beach,Union Square",(415) 986-8812,N/A,37.793901,-122.404564,Health and Diet Food,N/A,
b16ecef7-58f1-4deb-bd94-a6b5aa7efe8e,Nrgize Lifestyle Cafe,1200 Van Ness Ave,San Francisco,CA,94109,us,"Cathedral Hill,Laguna Heights,Van Ness",(415) 776-2200,http://www.nrgizejuice.com/,37.78701,-122.421219,Health and Diet Food,N/A,
0fdc79ab-bc81-4a98-a33d-cf799ec3c1e5,Healthy U,1650 Holloway Ave,San Francisco,CA,94132,us,"Lakeside,Parkmerced,Stonestown,Westlake",N/A,N/A,37.720968,-122.478057,Health and Diet Food,N/A,
048552da-8a3d-4a38-ada0-e37efed8c94a,Yong Long Herbs & Ginseng,479 Ellis St,San Francisco,CA,94102,us,"NOMA,Tenderloin,Union Square",(415) 776-3982,N/A,37.784488,-122.414045,Health and Diet Food,N/A,
91c10883-75ac-41cb-a5f3-8c3f04098a50,Heartland Society Of Northern California,2245 Irving St,San Francisco,CA,94122,us,"Central Sunset,Golden Gate Park",(415) 753-3544,https://www.heartlandshops.com/en/contact-us,37.763156,-122.48222,Health and Diet Food,N/A,
367cf300-9aae-453c-9f2b-4eded042d0c7,Spud,1925 Jerrold Ave,San Francisco,CA,94124,us,"Bayview District,Silver Terrace",(415) 695-9688,http://www.spud.com,37.74206,-122.395848,Health and Diet Food,N/A,
a372ba05-b56a-4cb3-b1d7-2037360ca908,Fort Mason Center Farmers' Market,Marina Blvd,San Francisco,CA,94123,us,Marina District,(800) 806-3276,http://www.fortmason.org/farmersmarket/,37.805984,-122.431948,Farmers' Markets,N/A,
39cb8e2c-a95a-4082-809c-2566687222e5,Han Hing,2512 San Bruno Ave,San Francisco,CA,94134,us,"Bayshore,Excelsior,Portola",(415) 468-8978,N/A,37.729695,-122.404579,Health and Diet Food,N/A,
fb331f0b-276b-439a-80d8-f7e273bad55b,Nana Joes Granola,2565 3rd St,San Francisco,CA,94107,us,"Central Waterfront,Dogpatch",(415) 589-7041,http://www.nanajoes.com/,37.757037,-122.387985,Health and Diet Food,N/A,
809f5283-9876-4f97-941b-f707b4efc713,Sunshine Health Food,1 Embarcadero Ctr,San Francisco,CA,94111,us,"Chinatown,Financial District",(415) 788-1380,N/A,37.79457,-122.399656,Health and Diet Food,N/A,
054b4d2b-f544-4ff6-88e7-9a4a8bc6cc50,Sun Sun Trading,1226 Stockton St,San Francisco,CA,94133,us,"Chinatown,Little Italy,Nob Hill,North Beach",(415) 989-9833,N/A,37.797103,-122.408409,Health and Diet Food,N/A,
c73efbc3-1efb-41d1-85eb-c19e05392e82,Nutrishop San Francisco,1118 Polk St,San Francisco,CA,94109,us,"Little Saigon,Tenderloin,Van Ness",(415) 874-9810,http://www.nutrishopsf.com/,37.787055,-122.419788,Health and Diet Food,N/A,
6968d5aa-4814-471b-87c5-db7667b1f195,Irving Health Foods,2309 Irving St,San Francisco,CA,94122,us,"Central Sunset,Golden Gate Park",(415) 661-3663,N/A,37.76315,-122.482721,Health and Diet Food,N/A,
81010d95-75b2-4fa9-bb32-46bac88904a9,Sunshine Health Foods,2636 Ocean Ave,San Francisco,CA,94132,us,"Lakeside,Merced Manor",(415) 664-7500,N/A,37.732113,-122.473779,Health and Diet Food,N/A,
2dd73cff-eed4-4a89-bb69-92823749286b,Kettel Krakkers,63 Bluxome St,San Francisco,CA,94107,us,"Mission Bay,South Of Market",(707) 528-1220,http://www.kettelkrakkers.com/,37.776466,-122.397156,Health and Diet Food,N/A,
03e06683-594e-4486-891c-fbb8eba8a7ba,Boushing Ginseng & Tea,755 Jackson St,San Francisco,CA,94133,us,"Chinatown,Little Italy,Nob Hill,North Beach",(415) 291-9766,N/A,37.79583,-122.407545,Health and Diet Food,N/A,
3222a119-2221-4b2b-af9f-8202b517d55d,Ola Loa,2698 Pacific Ave,San Francisco,CA,94115,us,Pacific Heights,(415) 346-4999,http://drinkyourvitamins.com/,37.792994,-122.439494,Health and Diet Food,N/A,
3d7cca34-302c-4e3a-af60-3a9cdb771680,Fava,1819 Polk St,San Francisco,CA,94109,us,"Nob Hill,Polk Gulch,Russian Hill",(415) 817-1170,http://www.favausa.com/,37.793628,-122.421395,Health and Diet Food,N/A,
5d7a4600-9575-4421-b3eb-847d04ad13bf,Living Intentions,2565 3rd St,San Francisco,CA,94107,us,"Central Waterfront,Dogpatch",(415) 824-5483,http://www.livingintentions.com,37.757037,-122.387985,Health and Diet Food,N/A,
81d2517d-590d-4635-a283-293dc7ad626f,Rebbl,530 Divisadero St,San Francisco,CA,94117,us,"Alamo Square,Lower Haight,North Panhandle",(855) 732-2500,http://www.rebbltonic.com/,37.774654,-122.437546,Health and Diet Food,N/A,
59ceb818-10f0-4d6a-9382-0e5955a9c9cd,Long Hua Grocery Store,638 Broadway,San Francisco,CA,94133,us,"Chinatown,Little Italy,Nob Hill,North Beach,Telegraph Hill",(415) 399-1070,N/A,37.797976,-122.407672,Health and Diet Food,N/A,
89e39206-bb27-4fdd-831f-b77ddb00ace6,Bryan's Grocery,3445 California St,San Francisco,CA,94118,us,Laurel Heights,(415) 752-0179,https://www.groupon.com/biz/san-francisco/bryans-grocery,37.786385,-122.450713,Meat and Seafood,N/A,
00ad394e-34f3-40cd-9672-312a891b1e41,Prather Ranch Meat Co.,1 Ferry Building,San Francisco,CA,94111,us,"Financial District,Financial District South,North Waterfront,Rincon Hill,South Beach",(415) 391-0420,http://www.prmeatco.com,37.795179,-122.393382,Meat and Seafood,N/A,
65e2e1f8-009d-49d6-915f-d48777e1d79c,Little City Market,1400 Stockton St,San Francisco,CA,94133,us,"Chinatown,Little Italy,Nob Hill,North Beach,Telegraph Hill",(415) 986-2601,http://littlecitybiglife.com,37.798886,-122.408586,Meat and Seafood,N/A,
197eb0af-5f82-4ee0-85ac-862acdd2797d,Seafood Center,831 Clement St,San Francisco,CA,94118,us,"Inner Richmond,Lake,Richmond District",(415) 752-3496,http://seafoodcenter.net,37.782609,-122.468405,Meat and Seafood,N/A,
040776a3-1e15-4005-9b7d-1abe0d140fb6,Salama Halal Meat,604 Geary St,San Francisco,CA,94102,us,"Tenderloin,Union Square",(415) 474-0359,N/A,37.78683,-122.413323,Meat and Seafood,N/A,
c1084390-c273-40ad-a898-4534d0988b35,Fresh Meat Market,2704 Mission St,San Francisco,CA,94110,us,"Baja Noe,Inner Mission,Mission,Mission District",(415) 550-8044,http://freshmeatmarket.wixsite.com/freshmeatseafood,37.753646,-122.418746,Meat and Seafood,N/A,
4905d7ae-542e-44d0-88ae-12b598aca7e4,Sun Fat Seafood Co.,2687 Mission St,San Francisco,CA,94110,us,"Baja Noe,Inner Mission,Mission,Mission District",(415) 282-9339,http://www.sunfatseafood.com,37.754124,-122.418487,Meat and Seafood,N/A,
22b26048-7954-4b7d-a2ee-0935f8a19604,Antonelli's Meat Fish & Poultry,3585 California St,San Francisco,CA,94118,us,"Laurel Heights,Presidio Heights",(415) 752-7413,http://www.antonellibros.com/,37.786302,-122.453073,Meat and Seafood,N/A,
39c4b8b8-2282-4842-8550-d95e0fb11a61,Olivier's Butchery,1074 Illinois St,San Francisco,CA,94107,us,"Central Waterfront,Dogpatch",(415) 558-9887,http://www.oliviersbutchery.com,37.758382,-122.38749,Meat and Seafood,N/A,
16f51495-7d0b-4ea7-9a78-7457c98a44ea,Alioto F Fish Co.,440 Jefferson St,San Francisco,CA,94109,us,"Fisherman's Wharf,Marina District",(415) 673-5866,http://www.crabonline.com,37.807861,-122.419799,Meat and Seafood,N/A,
55553120-53a5-4f02-9fd2-81a08ffd1c6a,Marina Meats,2395 Chestnut St,San Francisco,CA,94123,us,"Cow Hollow,Marina District",(415) 673-6700,http://www.marinameats.com,37.799912,-122.442556,Meat and Seafood,N/A,
14b0d3f7-d5c5-42d6-b82a-b4cab97564dd,Roberts Corned Meats,1030 Bryant St,San Francisco,CA,94103,us,"SOMISSPO,South Of Market",(415) 621-2624,http://www.robertscornedmeats.com,37.772164,-122.407726,Meat and Seafood,N/A,
f64e941e-e529-426b-aeee-0d38faec1cf9,Tip Top Grocery Market,90 Turk St,San Francisco,CA,94102,us,"Civic Center,NOMA,Tenderloin,Union Square",(415) 771-8110,http://tip-top-grocery-market-san-francisco-ca.placestars.com,37.783384,-122.410539,Meat and Seafood,N/A,
ab9fa37c-6932-4808-a3b5-223b5d80d40b,Golden Gate Meat Company,1 Ferry Building,San Francisco,CA,94111,us,"Financial District,North Waterfront,Rincon Hill,South Beach",(415) 983-7800,http://www.goldengatemeatcompany.com/,37.795575,-122.393764,Meat and Seafood,N/A,
0bb1aef6-6490-4e21-a18c-4e1007fbccb1,Wing Hing Seafood Market,633 Clement St,San Francisco,CA,94118,us,"Inner Richmond,Richmond District",(415) 668-1666,http://wing-hing-seafood-market-san-francisco-2-ca.placestars.com,37.782758,-122.466049,Meat and Seafood,N/A,
805078f5-127b-4459-baa9-99ffe9496a1b,Lucky Pork Market,2659 Mission St,San Francisco,CA,94110,us,"Baja Noe,Inner Mission,Mission,Mission District",(415) 648-4805,http://luckycompanies.com,37.754601,-122.418229,Meat and Seafood,N/A,
a90e9c32-670d-42cc-b94b-3218b39b64ae,P G Molinari & Sons,1401 Yosemite Ave,San Francisco,CA,94124,us,"Bayshore,Bayview,Bayview District",(415) 822-5555,http://www.molinarisalame.com,37.724719,-122.388379,Meat and Seafood,N/A,
6700f946-fce4-427a-b117-2d3c0bc1aeac,Rincon Latino,5080 Mission St,San Francisco,CA,94112,us,"Crocker-Amazon,Mission Terrace",(415) 586-8787,http://rinconlatinosf.com,37.717163,-122.440732,Meat and Seafood,N/A,
638703ed-5177-4c26-983f-08e6c447c879,Golden Gate Meat Co.,550 7th St,San Francisco,CA,94103,us,"SOMISSPO,South Of Market",(415) 861-3800,http://www.goldengatemeatcompany.com,37.773374,-122.404285,Meat and Seafood,N/A,
7738b561-8959-45e6-a27e-b0e24a8dbc17,Lo-Cost Meat Market,2918 24th St,San Francisco,CA,94110,us,"Inner Mission,Mission,Mission District",(415) 648-8646,N/A,37.752809,-122.410455,Meat and Seafood,N/A,
5c11970b-7c4e-4cfc-bcc3-faddfff227c8,Wycen Foods,832 Stockton St,San Francisco,CA,94108,us,"Chinatown,French Quarter,Little Italy,Nob Hill",(415) 788-3910,http://www.wycenfoods.com/,37.793662,-122.407704,Meat and Seafood,N/A,
22ed9d5a-da23-4824-b89e-f2329bfdda1d,Gold Corn Trading Co.,874 Pacific Ave,San Francisco,CA,94133,us,"Chinatown,Little Italy,Nob Hill",(415) 362-7921,N/A,37.796642,-122.409744,Meat and Seafood,N/A,
d63d4cc5-225b-42fd-87ae-1eab8bf5af4a,Drewes Bros. Meats,1706 Church St,San Francisco,CA,94131,us,"Bernal Heights,Noe Valley",(415) 821-0515,http://www.drewesbros.com,37.743521,-122.426818,Meat and Seafood,N/A,
ab6200c3-be12-4380-bf7c-1cc738e87b17,Sun Sang Market,1205 Stockton St,San Francisco,CA,94133,us,"Chinatown,Little Italy,Nob Hill,North Beach",(415) 989-3060,N/A,37.796859,-122.40861,Meat and Seafood,N/A,
010b1bcd-784e-4458-8499-7486bcb1ef94,Little Paradise Candy Store,1101 Stockton St,San Francisco,CA,94133,us,"Chinatown,Little Italy,Nob Hill",(415) 986-0680,http://www.littleparissf.com,37.795922,-122.408483,Meat and Seafood,N/A,
2278ab64-ca88-4153-98a3-7f40939dda79,Luen Fat Market,1135 Stockton St,San Francisco,CA,94133,us,"Chinatown,Little Italy,Nob Hill",(415) 781-3339,http://luen-fat-market-san-francisco-ca.placestars.com,37.796225,-122.408787,Meat and Seafood,N/A,
7d6ab8f8-3de7-4d90-ae2b-4774c6137689,Lo-Cost Meat Market,498 Haight St,San Francisco,CA,94117,us,"Hayes Valley,Lower Haight",(415) 621-4338,http://lo-cost-meat-market-san-francisco-2-ca.placestars.com,37.7723,-122.430312,Meat and Seafood,N/A,
2b5fcb60-0355-012f-b33e-003048cacd48,Fatted Calf Charcuterie,1 Ferry Building,San Francisco,CA,94111,us,"Financial District,North Waterfront,Rincon Hill,South Beach",(707) 256-3684,http://www.fattedcalf.com,37.795401,-122.393467,Meat and Seafood,N/A,
1704c1e8-792b-446a-bc65-90235d771538,Sun Hing Chinese Deli & Meat,1151 Stockton St,San Francisco,CA,94133,us,"Chinatown,Little Italy,Nob Hill",(415) 951-8628,http://sun-hing-chinese-deli-and-meat-san-francisco-ca.placestars.com,37.796469,-122.408587,Meat and Seafood,N/A,
1d071dbd-978e-4ca6-aaa0-1ad8bf5a24ae,Tsar Nicoulai Caviar,60 Dorman Ave,San Francisco,CA,94124,us,"Bayshore,Silver Terrace",(415) 543-3007,http://www.tsarnicoulai.com,37.739716,-122.403449,Meat and Seafood,N/A,
d6647d28-8774-438b-a1f0-a55135a78db2,Bryan's Quality Meats,3445 California St,San Francisco,CA,94118,us,Laurel Heights,(415) 752-0179,N/A,37.786477,-122.45079,Meat and Seafood,N/A,
38b0eec2-5f47-408b-b0e2-0347c0655f1e,Mission Market Fish & Poultry,2590 Mission St,San Francisco,CA,94110,us,"Baja Noe,Mission,Mission District",(415) 282-3331,http://mission-market-fish-and-poultry-san-francisco-ca.placestars.com,37.755625,-122.418934,Meat and Seafood,N/A,
e4e2f585-ae02-4d29-9a20-7ab10ab702d3,Stockton Seafood Center,900 Stockton St,San Francisco,CA,94108,us,"Chinatown,Little Italy,Lower Nob Hill,Nob Hill",(415) 986-1888,http://stockton-seafood-center-inc-san-francisco-ca.placestars.com,37.794182,-122.407735,Meat and Seafood,N/A,
102c6b83-db80-4881-9a81-5d7e2c2e91e4,Liang's Food,1145 Stockton St,San Francisco,CA,94133,us,"Chinatown,Little Italy,Nob Hill",(415) 433-0403,http://liangs-food-san-francisco-ca.placestars.com,37.796312,-122.408506,Meat and Seafood,N/A,
acc479e4-5d30-4407-a10b-68c907839624,Mese Hsin Tung Yang Foods,815 Tennessee St,San Francisco,CA,94107,us,"Central Waterfront,Dogpatch",(415) 647-0898,http://htyusa.com,37.761478,-122.389321,Meat and Seafood,N/A,
07ba9089-41bc-47f0-bffa-16cad8d16cac,Birdnest King Distribute,2322 Irving St,San Francisco,CA,94122,us,"Central Sunset,Golden Gate Park",(415) 665-1138,N/A,37.763491,-122.482956,Meat and Seafood,N/A,
62b9be92-352a-4726-8ea6-a74cc008d348,Molinari & Sons Salame Co.,1401 Yosemite Ave,San Francisco,CA,94124,us,"Bayshore,Bayview,Bayview District",(415) 822-5555,http://www.molinarisalame.com,37.724664,-122.388233,Meat and Seafood,N/A,
520e2046-6d17-44fa-95bc-00802cddf413,Noriega Market,2444 Noriega St,San Francisco,CA,94122,us,"Central Sunset,Doelger City,Sunset District",(415) 661-9853,http://noriega-food-market-san-francisco-ca.placestars.com,37.753847,-122.49026,Meat and Seafood,N/A,
8323a718-3d36-4be7-af19-56451edba0fd,Barons Quality Meats & Seafood,1706 Church St,San Francisco,CA,94131,us,"Bernal Heights,Noe Valley",(415) 654-5449,http://www.baronsmeats.com/,37.743418,-122.426884,Meat and Seafood,N/A,
694178be-c75e-454a-b560-6d52aefdfae8,Friends Fish & Meat Market,958 Geneva Ave,San Francisco,CA,94112,us,Crocker-Amazon,(415) 452-9688,http://friends-fish-and-meat-market-san-francisco-ca.placestars.com,37.715753,-122.440362,Meat and Seafood,N/A,
01dfd7df-7330-4b72-a7e0-9d8ba6d6e228,New Luen Sing Fish Market,1207 Stockton St,San Francisco,CA,94133,us,"Chinatown,Little Italy,Nob Hill,North Beach",(415) 399-8788,N/A,37.796924,-122.408613,Meat and Seafood,N/A,
733f2c6b-9b71-4a59-b768-ecc1e48223ac,Man Sung Market,1116 Grant Ave,San Francisco,CA,94133,us,"Chinatown,Little Italy,Nob Hill,North Beach",(415) 982-5918,http://man-sung-market-san-francisco-ca.placestars.com,37.797261,-122.406769,Meat and Seafood,N/A,
ee8a9911-b9e3-42c2-82b6-0e6c61cda3e5,Akron Meat Mkts,3325 20th St,San Francisco,CA,94110,us,"Mission,Mission District",(415) 824-8768,N/A,37.758782,-122.415251,Meat and Seafood,N/A,
28c6f71e-a35c-47c6-be5e-8af6b500bbca,Belcampo SF/Russian Hill,1998 Polk St,San Francisco,CA,94109,us,"Nob Hill,Polk Gulch,Russian Hill",(415) 660-5573,http://www.belcampomeatco.com/,37.794848,-122.421252,Meat and Seafood,N/A,
bd6b60bb-a1f8-47ba-8097-9705abe7a878,Yang Tze Market,2026 Mission St,San Francisco,CA,94110,us,"Inner Mission,Mission,Mission District,Mission Dolores",(415) 552-2878,http://yang-tze-market-san-francisco-ca.placestars.com,37.76444,-122.419885,Meat and Seafood,N/A,
049d8071-a032-4ad4-bf48-338d67c361f9,Wah Hing Market,1200 Stockton St,San Francisco,CA,94133,us,"Chinatown,Little Italy,Nob Hill,North Beach",(415) 421-7245,http://wah-hing-market-san-francisco-ca.placestars.com,37.796816,-122.40832,Meat and Seafood,N/A,
6b38145d-3dcd-4680-8f1d-72985d85cbd0,4505 Meats,1909 Mission St,San Francisco,CA,94103,us,"Inner Mission,Mission,Mission District,Mission Dolores",(415) 525-4239,http://4505meats.com/,37.766516,-122.419649,Meat and Seafood,N/A,
15474457-2234-4b13-a910-50b9120f0b9c,European Food Wholesale,3038 Clement St,San Francisco,CA,94121,us,"Central Richmond,Richmond District,Sea Cliff",(415) 750-0504,http://european-food-wholesale-and-deli-san-francisco-ca.placestars.com,37.781903,-122.492009,Meat and Seafood,N/A,
64525a95-4d9e-4a27-85e3-1bae52779be1,C J Pacific International,1140 Revere Ave,San Francisco,CA,94124,us,"Bayshore,Bayview",(415) 822-8910,http://pacificroofing.com,37.726942,-122.381487,Meat and Seafood,N/A,
78ab03e9-302b-4fdb-92c6-dfd277b316cf,Antonelli's Food Products,3585 California St,San Francisco,CA,94118,us,"Laurel Heights,Presidio Heights",(415) 752-7413,http://antonellibros.com,37.786172,-122.453065,Meat and Seafood,N/A,
264d3125-9034-45f3-b375-4fcb2f070c26,Good Food Awards,150 S Park St,San Francisco,CA,94107,us,"South Beach,South Of Market",(415) 796-3713,http://www.goodfoodawards.org,37.781421,-122.394723,Farmers' Markets,N/A,
37ddb947-af85-4313-975b-5a3467556ed0,Yangtze Meat and Fish Market,2026 Mission St,San Francisco,CA,94110,us,"Inner Mission,Mission,Mission District,Mission Dolores",(415) 552-2878,N/A,37.764402,-122.419954,Meat and Seafood,N/A,
3630582c-3ca6-4a9e-96f1-268824c8f1cd,Pastoral Plate,3669 17th St,San Francisco,CA,94114,us,"Castro,Duboce Triangle,Eureka Valley Dolores Heights,Mastro,Mission,Mission Dolores",(415) 577-6322,http://www.pastoralplate.com/,37.762761,-122.427741,Meat and Seafood,N/A,
1770be24-100c-4381-935a-0b760ae250af,Lafayette Caviar & Fine Foods,2504 3rd St,San Francisco,CA,94107,us,"Central Waterfront,Dogpatch",(415) 401-8665,http://www.lafayette.com,37.757683,-122.388524,Meat and Seafood,N/A,
1699be84-d7bd-49b9-b3f7-f602ef7e7f1e,Polarica,105 Quint St,San Francisco,CA,94124,us,"Bayview Heights,Central Waterfront",(415) 647-1300,http://www.polaricausa.com/,37.746274,-122.388141,Meat and Seafood,N/A,
0e77dbd3-7efa-4722-b7e7-c0ae6d136d22,Chucks Market,5137 Mission St,San Francisco,CA,94112,us,Crocker-Amazon,(415) 333-6832,http://chucks-market-san-francisco-ca.placestars.com,37.716588,-122.440555,Meat and Seafood,N/A,
5c9907c9-de6d-4125-aea8-9be1a734c105,San Francisco Caviar House,240 Lombard St,San Francisco,CA,94111,us,"Fisherman's Wharf,Telegraph Hill",(415) 399-9828,http://www.sfcaviarhouse.com/,37.804183,-122.405528,Meat and Seafood,N/A,
79e6f482-256e-48f7-be70-bf0468d684d5,Chang Hong Meat Market,1335 Powell St,San Francisco,CA,94133,us,"Chinatown,Little Italy,Nob Hill",(415) 576-1137,N/A,37.797015,-122.410411,Meat and Seafood,N/A,
05577f5b-9693-4447-badf-d968a5a84bcf,Wycen Foods,903 Washington St,San Francisco,CA,94108,us,"Chinatown,Little Italy,Nob Hill",(415) 788-3910,http://wycen-foods-san-francisco-2-ca.placestars.com,37.794735,-122.408198,Meat and Seafood,N/A,
0cb24011-9a0b-471e-915f-53cdda455703,Say Cheese,856 Cole St,San Francisco,CA,94117,us,"Ashbury Heights,Cole Valley,Park View Commons",(415) 665-5020,http://saycheesesf.com,37.766033,-122.449863,Cheese,N/A,
509aabc2-a77e-4f9e-bdf0-1fb1145361b0,24th Street Cheese Company,3893 24th St,San Francisco,CA,94114,us,"Castro,Dolores Heights,Noe Valley",(415) 821-6658,http://www.24thstreetcheese.com,37.75149,-122.429439,Cheese,N/A,
b8f94caf-2abf-4184-a2cb-d3f745564fa3,Cheese Boutique,666 Chenery St,San Francisco,CA,94131,us,"Bayshore,Glen Park,Glenridge",(415) 333-3390,http://www.cheeseboutique.webs.com,37.734583,-122.433454,Cheese,N/A,
f706b207-0b59-43e8-b584-8205578834cc,Cowgirl Creamery,1 Ferry Building,San Francisco,CA,94111,us,"Financial District,North Waterfront,Rincon Hill,South Beach",(415) 362-9354,http://www.cowgirlcreamery.com,37.795661,-122.393482,Cheese,N/A,
9f8d44cb-d3ad-495b-888a-4e6708e0ea22,Fresh Organics,5843 Geary Blvd,San Francisco,CA,94121,us,"Central Richmond,Richmond District",(415) 387-6367,http://www.freshvites.com/,37.780049,-122.482153,Cheese,N/A,
f9916739-ec72-4759-8c9f-e89b7072ca13,Pugs Leap Farm,3251 20th Ave,San Francisco,CA,94132,us,"Lakeside,Stonestown",N/A,http://www.pugsleap.com/,37.728554,-122.476719,Cheese,N/A,
264d3125-9034-45f3-b375-4fcb2f070c26,Good Food Awards,150 S Park St,San Francisco,CA,94107,us,"South Beach,South Of Market",(415) 796-3713,http://www.goodfoodawards.org,37.781421,-122.394723,Farmers' Markets,N/A,
f0633fa3-3d88-410b-9c04-6465206b7170,Gilt Edge Creamery,685 4th St,San Francisco,CA,94107,us,"Mission Bay,South Beach,South Of Market",(415) 986-3858,http://thecreamerysf.com/,37.777155,-122.395404,Cheese,N/A,
b1eb5b57-5119-4e73-8610-b79d1b7f6b5d,Kael Foods,1950 Innes Ave,San Francisco,CA,94124,us,Silver Terrace,(415) 282-0990,http://www.kaelfoods.com/,37.743047,-122.394903,Cheese,N/A,
aaabaed3-93bb-4e9b-8fbb-6447969806b6,Cowgirl Creamery Artisan,1 Embarcadero Ctr,San Francisco,CA,94111,us,"Financial District,North Waterfront,Rincon Hill,South Beach",(415) 362-9350,https://www.cowgirlcreamery.com/san-francisco-ferry-building-cheese-shop,37.795661,-122.393482,Cheese,N/A,
754647b0-1e18-012f-0643-0030487f54d8,Bodega and Yerba Santa Goat Cheese,1 Ferry Building,San Francisco,CA,94111,us,"Financial District,North Waterfront,Rincon Hill,South Beach",(707) 263-8131,http://www.cuesa.org/markets/farmers/farm_10.php,37.79552,-122.393617,Cheese,N/A,
de286fd0-d829-012e-561a-003048cad9da,Spring Hill Jersey Cheese,1 Ferry Building,San Francisco,CA,94111,us,"Financial District,North Waterfront,Rincon Hill,South Beach",(415) 291-3276,http://www.springhillcheese.com/,37.795602,-122.393837,Cheese,N/A,
596c27a4-24f2-4bf9-bd0a-1c67aa269461,Domestic Cheese,450 Toland St,San Francisco,CA,94124,us,"Bayview District,Silver Terrace",(415) 869-1800,N/A,37.744923,-122.398596,Cheese,N/A,
0cb24011-9a0b-471e-915f-53cdda455703,Say Cheese,856 Cole St,San Francisco,CA,94117,us,"Ashbury Heights,Cole Valley,Park View Commons",(415) 665-5020,http://saycheesesf.com,37.766033,-122.449863,Cheese,N/A,
cd464f4b-cf14-48ac-8566-ccd0fc13021e,BevMo!,201 Bay Shore Blvd,San Francisco,CA,94124,us,Silver Terrace,(415) 648-1233,http://www.bevmo.com,37.744922,-122.403756,"Beer, Wine and Spirits",BevMo!,
5a861576-8e39-4382-b44d-9538546078d9,Healthy Spirits,1042 Clement St,San Francisco,CA,94118,us,"Inner Richmond,Lake,Richmond District",(415) 682-4260,http://healthy-spirits.blogspot.com/,37.782797,-122.470637,"Beer, Wine and Spirits",N/A,
1b62d90b-b7ef-45a8-8ebd-aa80b9057837,Gene's Liquor,2201 Taraval St,San Francisco,CA,94116,us,"Parkside,Westlake",(415) 681-4880,http://genes-liquor-san-francisco-ca.placestars.com,37.742221,-122.489781,"Beer, Wine and Spirits",N/A,
d7a7c8c9-cc1a-4931-8a5c-8a260730929f,The Wine Club,953 Harrison St,San Francisco,CA,94107,us,"South Beach,South Of Market",(415) 512-9086,http://www.thewineclub.com,37.777863,-122.40283,"Beer, Wine and Spirits",N/A,
4d2c02fe-ccf4-4525-931b-2f135070a8be,William Cross Wine Merchants,2253 Polk St,San Francisco,CA,94109,us,"Polk Gulch,Russian Hill",(415) 346-1314,http://wmcross.com,37.797698,-122.422424,"Beer, Wine and Spirits",N/A,
3d5ad87f-5209-418b-acc6-00c979981cdb,Ruby Wine,1419 18th St,San Francisco,CA,94107,us,"Potrero District,Victoria Mews",(415) 401-7708,http://www.rubywinesf.com,37.762463,-122.396977,"Beer, Wine and Spirits",N/A,
1a430eb2-4255-4f55-9395-3a96f450e2e2,Castro Village Wine Co.,4121 19th St,San Francisco,CA,94114,us,"Castro,Eureka Valley,Eureka Valley Dolores Heights",(415) 864-4411,http://www.castrowine.com,37.75919,-122.435125,"Beer, Wine and Spirits",N/A,
1f1c57ca-b017-44c1-9ce3-c273c7f10f57,San Francisco Wine Trading Company,250 Taraval St,San Francisco,CA,94116,us,"Inner Parkside,Westlake",(415) 731-6222,http://www.sfwtc.com,37.743653,-122.469023,"Beer, Wine and Spirits",N/A,
fb3507a9-4f80-4dcc-b9c0-753085e9fb0a,The Winery SF,200 California Ave,San Francisco,CA,94130,us,Financial District,(415) 735-8423,http://winery-sf.com,37.817509,-122.369953,"Beer, Wine and Spirits",N/A,
2c733550-29f7-4bda-8821-ed0e1387758e,St Clair Liquors,3900 24th St,San Francisco,CA,94114,us,"Dolores Heights,Noe Valley",(415) 282-4900,http://st-clairs-liquors-san-francisco-ca.placestars.com,37.751652,-122.429878,"Beer, Wine and Spirits",N/A,
3fa13274-70fc-48cb-9a66-fd6476160659,Fred's Liquor & Groceries,151 6th St,San Francisco,CA,94103,us,"NOMA,South Beach,South Of Market",(415) 543-7337,http://freds-liquor-and-groceries-san-francisco-ca.placestars.com,37.780523,-122.407789,"Beer, Wine and Spirits",N/A,
e44a96c3-b2f1-4eeb-9177-1a54665120ed,Easy Money,2312 Irving St,San Francisco,CA,94122,us,"Central Sunset,Golden Gate Park",(415) 731-3538,http://goeasymoney.com/,37.763437,-122.48281,"Beer, Wine and Spirits",N/A,
30a7c2b2-0afb-4116-a6ec-5872e0bddb03,True Sake,560 Hayes St,San Francisco,CA,94102,us,"Alamo Square,Hayes Valley,Thomas Paine Square",(415) 355-9555,http://www.truesake.com,37.776639,-122.425695,"Beer, Wine and Spirits",N/A,
7bc58ccc-5de1-43fe-8e5c-d19f477666bd,That's It Market,2699 Mission St,San Francisco,CA,94110,us,"Baja Noe,Inner Mission,Mission,Mission District",(415) 285-9833,http://thats-it-market-san-francisco-ca.placestars.com,37.753929,-122.418476,"Beer, Wine and Spirits",N/A,
55c1b12b-6ab1-4bcc-9843-663298740f60,Plump Jack Wines Noe Valley,4011 24th St,San Francisco,CA,94114,us,"Dolores Heights,Noe Valley",(415) 282-3841,http://www.plumpjackwines.com,37.751309,-122.432223,"Beer, Wine and Spirits",N/A,
11b6a6d6-0b52-43bd-87f8-4703f1027dd7,Mike's Liquors,5084 Mission St,San Francisco,CA,94112,us,"Crocker-Amazon,Mission Terrace",(415) 587-5050,http://www.mikesliquors.com,37.71719,-122.440805,"Beer, Wine and Spirits",N/A,
42984680-3b4f-434d-a5a8-c5d38f42307d,Mission Silver Market,4304 Mission St,San Francisco,CA,94112,us,"Bayshore,Glen Park,Glenridge,Mission Terrace",(415) 239-2924,http://www.missionrecorders.com,37.728614,-122.431596,"Beer, Wine and Spirits",N/A,
5cee1935-91ce-4b0a-aedc-5b19b677f096,Arlequin Wine Merchant,384 Hayes St,San Francisco,CA,94102,us,"Alamo Square,Civic Center,Hayes Valley,Intermission,Opera Plaza,Thomas Paine Square",(415) 863-1104,http://www.arlequinwinemerchant.com,37.776998,-122.422706,"Beer, Wine and Spirits",N/A,
1262abd9-f024-48ad-b769-206e539daf50,Biondivino Wine Boutique,1415 Green St,San Francisco,CA,94109,us,"Polk Gulch,Russian Hill",(415) 673-2320,http://www.biondivino.com,37.797698,-122.422424,"Beer, Wine and Spirits",N/A,
8a0f040e-23d0-46f9-bf8b-e0d0b635fd98,BevMo!,3455 Geary Blvd,San Francisco,CA,94118,us,Lone Mountain,(415) 933-8494,http://www.bevmo.com,37.780999,-122.455768,"Beer, Wine and Spirits",BevMo!,
02427063-c4da-4279-a083-3df1695e7b8c,Blackwell's Wines & Spirits,5620 Geary Blvd,San Francisco,CA,94121,us,"Central Richmond,Little Russia,Richmond District",(415) 386-9463,http://www.blackwellswines.com,37.780523,-122.479817,"Beer, Wine and Spirits",N/A,
1727d9d2-5a87-47cb-b480-32d29b843a3d,Swirl on Castro,572 Castro St,San Francisco,CA,94114,us,"Castro,Eureka Valley,Eureka Valley Dolores Heights",(415) 864-2262,http://www.swirloncastro.com,37.759738,-122.43523,"Beer, Wine and Spirits",N/A,
f115f702-df73-40fc-96b4-be9c04b08dc6,Wm Glen & Son,360 Sutter St,San Francisco,CA,94108,us,"Chinatown,Financial District,French Quarter,NOMA,Nob Hill,Union Square",(415) 989-1030,http://www.wmglenusa.com/,37.78964,-122.406463,"Beer, Wine and Spirits",N/A,
c90ebf4a-b4da-4c3e-9a2c-cb8ec39776e3,The Jug Shop,1590 Pacific Ave,San Francisco,CA,94109,us,"Nob Hill,Polk Gulch,Russian Hill",(415) 885-2922,http://www.thejugshop.com,37.795395,-122.421356,"Beer, Wine and Spirits",N/A,
10381497-807b-4288-91b2-bb24e490d382,Cask,17 3rd St,San Francisco,CA,94103,us,"Financial District,NOMA,South Of Market,Union Square",(415) 424-4844,http://www.caskstore.com,37.787436,-122.40325,"Beer, Wine and Spirits",N/A,
57761253-c447-4cbe-a779-a35a082c9b14,D & M Wine & Liquor Co.,2200 Fillmore St,San Francisco,CA,94115,us,"Lower Pacific Heights,Pacific Heights",(415) 346-1325,http://www.dandm.com,37.789963,-122.433866,"Beer, Wine and Spirits",N/A,
98c76bbd-a1a5-4f96-9592-92ceff860ba0,Healthy Spirits,2299 15th St,San Francisco,CA,94114,us,"Castro,Duboce Triangle",(415) 255-0610,http://healthy-spirits.blogspot.com,37.765614,-122.435291,"Beer, Wine and Spirits",N/A,
25deb54b-1b23-4bd0-a522-009e6f78dec1,Winery Collective,485 Jefferson St,San Francisco,CA,94109,us,"Fisherman's Wharf,Marina District",(415) 929-9463,http://www.winerycollective.com,37.807519,-122.420424,"Beer, Wine and Spirits",N/A,
094b2765-18e9-4ef2-b52f-425e1192f545,City Beer Store,1168 Folsom St,San Francisco,CA,94103,us,"Civic Center,South Of Market",(415) 503-1033,http://www.citybeerstore.com,37.77566,-122.409438,"Beer, Wine and Spirits",N/A,
0ac6e09b-7ca0-4d20-9ab9-49915fb3faed,Golden Gate Wine Cellars,2337 Ocean Ave,San Francisco,CA,94127,us,"Balboa Terrace,Westlake",(415) 337-4083,http://www.goldengatewinecellars.com,37.729547,-122.468899,"Beer, Wine and Spirits",N/A,
85616ebb-efa2-4189-803b-7254b18b0bab,Coit Liquor,585 Columbus Ave,San Francisco,CA,94133,us,"Chinatown,Little Italy,Nob Hill,North Beach",(415) 362-4444,http://www.coitliquor.com/,37.800159,-122.41031,"Beer, Wine and Spirits",N/A,
9d2d4a9c-910e-4974-b3ef-735c660d768f,Wayne's Liquor,911 Kearny St,San Francisco,CA,94133,us,"Chinatown,Financial District,Jackson Square,Little Italy,Nob Hill,North Beach",(415) 433-3317,http://waynes-liquor-san-francisco-ca.placestars.com,37.796421,-122.405357,"Beer, Wine and Spirits",N/A,
d4856bc4-91ab-4150-a748-616df207d73d,New Star-Ell Liquor,501 Divisadero St,San Francisco,CA,94117,us,"Alamo Square,Lower Haight,North Panhandle",(415) 567-7900,http://www.newstarell.com,37.774177,-122.437805,"Beer, Wine and Spirits",N/A,
430482d5-689a-437c-ae60-9140522ca825,Zain's Liquor,34 3rd St,San Francisco,CA,94103,us,"Financial District,NOMA,South Of Market,Union Square",(415) 495-6808,http://zains-liquor-and-deli-san-francisco-ca.placestars.com,37.787045,-122.403227,"Beer, Wine and Spirits",N/A,
3ff3474b-6c70-4815-9fdc-2436b17fb1cc,Mike's Liquors & Groceries,2499 Mission St,San Francisco,CA,94110,us,"Mission,Mission District",(415) 550-0816,http://www.mikesliquors.com,37.757208,-122.418741,"Beer, Wine and Spirits",N/A,
59c47ffd-6c45-4506-bbad-adaf9e2544c4,Victoria Liquor & Groceries,201 Gough St,San Francisco,CA,94102,us,"Civic Center,Hayes Valley,Intermission",(415) 864-5266,http://victoria-liquors-and-sandwiches-san-francisco-ca.placestars.com,37.775101,-122.422737,"Beer, Wine and Spirits",N/A,
b6160e6a-df54-4b04-adf3-423b8d1774ae,Wines Of California,39 Pier,San Francisco,CA,94133,us,"Fisherman's Wharf,North Waterfront",(415) 989-0353,http://www.winesofca.com,37.810023,-122.410319,"Beer, Wine and Spirits",N/A,
f64e941e-e529-426b-aeee-0d38faec1cf9,Tip Top Grocery Market,90 Turk St,San Francisco,CA,94102,us,"Civic Center,NOMA,Tenderloin,Union Square",(415) 771-8110,http://tip-top-grocery-market-san-francisco-ca.placestars.com,37.783384,-122.410539,Supermarkets and Groceries,N/A,
afd86ea0-8eac-479e-b2ff-1daa80e8b93f,Judah Ninth Avenue Liquors,1400 9th Ave,San Francisco,CA,94122,us,"Inner Sunset,Inset",(415) 759-7240,http://judah-ninth-avenue-liquors-san-francisco-ca.placestars.com,37.761858,-122.465951,"Beer, Wine and Spirits",N/A,
2537a0ef-92bd-4617-ad2b-1c658ed8dcc5,Martell's Liquor,5615 Geary Blvd,San Francisco,CA,94121,us,"Central Richmond,Little Russia,Richmond District",(415) 752-8881,http://martells-liquor-san-francisco-ca.placestars.com,37.780041,-122.479717,"Beer, Wine and Spirits",N/A,
523c8d17-291b-4a0d-a3ab-456b87f4a94a,Potrero Market & Deli,1298 Potrero Ave,San Francisco,CA,94110,us,"Inner Mission,Mission,Mission District,Victoria Mews",(415) 824-7351,http://potrero-market-and-deli-san-francisco-ca.placestars.com,37.751514,-122.406437,"Beer, Wine and Spirits",N/A,
69364609-98e7-4f86-8679-c04f8e85d307,BevMo!,1301 Van Ness Ave,San Francisco,CA,94109,us,"Cathedral Hill,Laguna Heights,Pacific Heights,Van Ness",(415) 447-8483,http://www.bevmo.com,37.787677,-122.422334,"Beer, Wine and Spirits",BevMo!,
65552e96-3327-4b69-994b-01e1ba9e94bc,California Wine Merchant,2113 Chestnut St,San Francisco,CA,94123,us,"Cow Hollow,Marina District",(415) 567-0646,http://www.californiawinemerchant.com,37.800474,-122.438217,"Beer, Wine and Spirits",N/A,
30a3b81c-dfef-4f02-bbcf-b05fe66a5370,Eezy Freezy,25 W Portal Ave,San Francisco,CA,94127,us,"Forest Hill,Laguna Honda,St. Francis Wood,West Portal,Westlake",(415) 566-6000,N/A,37.74049,-122.465969,"Beer, Wine and Spirits",N/A,
5b092426-2288-4b9b-b47a-30bf3ad2e643,Glen Park Market,2900 Diamond St,San Francisco,CA,94131,us,"Bayshore,Glen Park,Glenridge",(415) 587-4427,http://www.bart.gov/stations/stationguide/stationoverview_glnpk.asp,37.733335,-122.434383,"Beer, Wine and Spirits",N/A,
d3c0fb82-a287-4a5d-8556-c5b2cf405200,Woerner's Liquors,901 Geary St,San Francisco,CA,94109,us,"Little Saigon,Tenderloin",(415) 775-9117,http://woerners-liquors-san-francisco-ca.placestars.com,37.785863,-122.418284,"Beer, Wine and Spirits",N/A,
70bdf0ee-ea4a-4431-9c59-82930c6741f6,Mason Liquor & Deli,530 Mason St,San Francisco,CA,94102,us,"NOMA,Union Square",(415) 956-8976,http://mason-liquor-san-francisco-ca.placestars.com,37.78855,-122.410055,"Beer, Wine and Spirits",N/A,
7532e872-b48d-4925-b4eb-907708c7fe8d,Plumpjack Wines,3201 Fillmore St,San Francisco,CA,94123,us,Cow Hollow,(415) 346-9870,http://www.plumpjackwines.com,37.799039,-122.436053,"Beer, Wine and Spirits",N/A,
1c4feabc-c492-494d-ae45-3175ed9fdf3c,Nineteenth Avenue Liquors,1800 19th Ave,San Francisco,CA,94122,us,"Golden Gate Heights,Inner Sunset",(415) 379-4824,http://nineteenthave.com,37.754115,-122.476165,"Beer, Wine and Spirits",N/A,
acfce9e8-d02e-4aae-8447-bec5663e6600,Michaelis Wine & Spirits,2198 Union St,San Francisco,CA,94123,us,Cow Hollow,(415) 921-5700,N/A,37.797197,-122.43537,"Beer, Wine and Spirits",N/A,
00af178a-f349-42e7-9a30-ea03b7ae15ba,White Palace Liquor Store,1524 Silver Ave,San Francisco,CA,94134,us,"Bayshore,Portola,Silver Terrace",(415) 468-0985,http://white-palace-liquor-store-san-francisco-ca.placestars.com,37.732108,-122.405939,"Beer, Wine and Spirits",N/A,
044015da-fb34-4968-8656-a9d90192a283,Seabee Liquor,3000 Taraval St,San Francisco,CA,94116,us,"Outer Parkside,Outer Sunset",(415) 731-2373,http://sea-bee-liquors.placestars.com,37.742174,-122.498444,"Beer, Wine and Spirits",N/A,
b6f26116-f632-424f-aac2-2b1af93c7f61,Noe Valley Wine Merchants,3821 24th St,San Francisco,CA,94114,us,"Baja Noe,Castro,Dolores Heights,Noe Valley",(415) 374-7249,http://www.noevalleywinemerchants.com,37.751534,-122.428008,"Beer, Wine and Spirits",N/A,
1e791d2e-fd93-4fb1-9cfa-f91b9a012560,Wine Impression,3461 California St,San Francisco,CA,94118,us,Laurel Heights,(415) 221-9463,http://sanfrancisco.citysearch.com/profile/905678/san_franci/,37.786363,-122.450998,"Beer, Wine and Spirits",N/A,
2dcd9833-3a98-40ee-8d16-8782c3eb8af6,Friendly Liquor,1499 Thomas Ave,San Francisco,CA,94124,us,"Bayshore,Bayview,Bayview District,Bayview Heights",(415) 822-8321,http://friendly-liquor-san-francisco-ca.placestars.com,37.729182,-122.389429,"Beer, Wine and Spirits",N/A,
7ff833e0-3d61-44ac-b659-5c8dbb73fb9a,Cameron Hughes Wine,251 Rhode Island St,San Francisco,CA,94103,us,"Potrero District,Potrero Flats",(415) 495-1350,http://www.chwine.com/,37.766745,-122.402533,"Beer, Wine and Spirits",N/A,
49128df2-3026-4093-89d5-0069121c8d64,Lawton Liquors,3645 Lawton St,San Francisco,CA,94122,us,"Outer Sunset,Outset",(415) 564-0737,http://lawton-liquors-san-francisco-ca.placestars.com,37.75668,-122.502249,"Beer, Wine and Spirits",N/A,
04c9dcc8-3d98-4268-9673-594b4b7d1be1,Samy's Liquor & Groceries,2847 24th St,San Francisco,CA,94110,us,"Inner Mission,Mission,Mission District",(415) 824-3868,http://samys-liquor-and-groceries-san-francisco-ca.placestars.com,37.752734,-122.408874,"Beer, Wine and Spirits",N/A,
1b004b5f-70f5-4dcf-91df-84b90a5f03ab,Fred's Liquor & Delicatessen,200 Valencia St,San Francisco,CA,94103,us,"Deco Ghetto,Mission,Mission Dolores,The Hub",(415) 621-2500,http://freds-liquor-and-delicatessen-san-francisco-2-ca.placestars.com,37.76973,-122.422491,"Beer, Wine and Spirits",N/A,
,,,,,,,,,,,,,,
,,,,,,,,,,,,,,
,,,,,,,,,,,,,,
,,,,,,,,,,,,,,
,,,,,,,,,,,,,,
,,,,,,,,,,,,,,
